228P/LINEAR,e,7.9132,30.9827,114.7581,4.165231,0.1159432,0.17659898,154.7006,11/02.0/2023,2000,g 14.1,4.0
# From MPC106349
229P/Gibbs,e,26.0978,157.9402,224.0908,3.924719,0.1267626,0.37799872,297.9378,11/02.0/2023,2000,g 13.0,4.0
# From MPEC 2023-KD6
230P/LINEAR,e,15.4682,106.9591,313.4980,3.453627,0.1535645,0.54567842,90.9905,11/02.0/2023,2000,g 13.0,4.0
# From MPEC 2023-SQ0
231P/LINEAR-NEAT,e,12.2793,132.9035,44.1407,4.052227,0.1208268,0.24129836,194.0391,11/02.0/2023,2000,g 14.5,2.0
# From MPC112394
232P/Hill,e,14.6444,56.0301,53.2087,4.473271,0.1041757,0.33532195,174.0217,11/02.0/2023,2000,g 11.5,4.0
# From MPEC 2021-N06
233P/La Sagra,e,11.2887,74.9003,26.9759,3.027700,0.1870832,0.41257218,210.6530,11/02.0/2023,2000,g 15.0,4.0
# From MPEC 2022-K19
234P/LINEAR,e,11.5355,179.5669,357.3988,3.795611,0.1332851,0.25671864,312.4811,11/02.0/2023,2000,g 12.0,4.0
# From MPC110497
235P/LINEAR,e,10.0023,204.8025,345.6321,3.534320,0.1483356,0.41295166,242.5437,11/02.0/2023,2000,g 12.0,4.0
# From MPEC 2023-J29
236P/LINEAR,e,16.3548,245.5689,119.3806,3.726688,0.1369997,0.50938322,297.0204,11/02.0/2023,2000,g 14.0,4.0
# From MPEC 2023-UR6
237P/LINEAR,e,14.0166,245.3596,25.2681,3.510111,0.1498728,0.43389219,25.6745,11/02.0/2023,2000,g 14.5,2.0
# From MPEC 2023-UR6
238P/Read,e,1.2640,51.6282,324.2223,3.165565,0.1749956,0.25129833,90.0527,11/02.0/2023,2000,g 14.5,4.0
# From MPEC 2021-F20
239P/LINEAR,e,11.3071,255.9435,220.3430,4.466274,0.1044206,0.63081129,183.5047,11/02.0/2023,2000,g 17.5,2.0
# From MPEC 2023-CD7
240P/NEAT,e,23.5359,74.9141,351.9849,3.862800,0.1298227,0.45019872,258.8821,11/02.0/2023,2000,g 11.0,4.0
# From MPEC 2022-J42
241P/LINEAR,e,21.0974,305.4838,111.4799,4.923741,0.0902114,0.61047608,74.7742,11/02.0/2023,2000,g 13.5,4.0
# From MPEC 2023-UR6
242P/Spahr,e,32.4837,180.3777,244.9598,5.521469,0.0759665,0.28079980,328.2314,11/02.0/2023,2000,g  8.0,4.0
# From MPEC 2022-K19
243P/NEAT,e,7.6428,87.6526,283.6360,3.828954,0.1315479,0.36064394,248.6948,11/02.0/2023,2000,g 12.5,4.0
# From MPEC 2023-UR6
244P/Scotti,e,2.2591,354.0032,93.2120,4.899031,0.0908948,0.19967154,31.7129,11/02.0/2023,2000,g  9.0,4.0
# From MPEC 2022-CN4
245P/WISE,e,21.1803,316.8891,316.5895,4.049124,0.1209658,0.45576556,253.4970,11/02.0/2023,2000,g 14.0,4.0
# From MPEC 2023-UR6
246P/NEAT,e,16.4089,76.3627,180.0666,4.054898,0.1207075,0.28983419,117.6599,11/02.0/2023,2000,g 10.5,4.0
# From MPEC 2021-F20
247P/LINEAR,e,13.6594,54.0133,47.4257,3.966353,0.1247720,0.62512106,224.1000,11/02.0/2023,2000,g 16.5,2.0
# From MPC 75730
248P/Gibbs,e,6.3513,207.8234,209.8990,5.987319,0.0672753,0.63933284,314.0615,11/02.0/2023,2000,g 14.0,4.0
# From MPEC 2022-YN2
249P/LINEAR,e,8.3854,239.0498,65.7567,2.764112,0.2144720,0.81945181,261.8405,11/02.0/2023,2000,g 15.5,4.0
# From MPC110497
250P/Larson,e,13.1548,73.3020,46.0114,3.772384,0.1345179,0.39870836,284.3334,11/02.0/2023,2000,g 14.5,4.0
# From MPC104795
251P/LINEAR,e,23.3873,219.3230,31.2464,3.513879,0.1496318,0.50446237,344.5515,11/02.0/2023,2000,g 16.5,2.0
# From MPEC 2021-S45
252P/LINEAR,e,10.4148,190.9101,343.3943,3.051255,0.1849211,0.67084317,156.1530,11/02.0/2023,2000,g 17.5,4.0
# From MPEC 2020-FB5
253P/PANSTARRS,e,4.9450,146.9119,230.7371,3.462921,0.1529467,0.41461844,305.8705,11/02.0/2023,2000,g 14.5,4.0
# From MPEC 2023-FK0
254P/McNaught,e,32.5557,129.1880,219.7225,4.617594,0.0993300,0.31932613,112.0172,11/02.0/2023,2000,g 11.0,4.0
# From NK 2214
255P/Levy,e,13.3975,275.6417,186.0296,2.942428,0.1952744,0.71175460,82.0901,11/02.0/2023,2000,g  9.0,4.0
# From MPEC 2023_O39
256P/LINEAR,e,27.6222,81.3271,124.1686,4.638533,0.0986582,0.41789395,23.1711,11/02.0/2023,2000,g 14.0,2.0
# From MPEC 2023-A50
257P/Catalina,e,20.2199,207.7122,117.7886,3.765569,0.1348833,0.42954484,154.8192,11/02.0/2023,2000,g 11.5,4.0
# From MPEC 2021-U31
258P/PANSTARRS,e,6.7486,126.2323,25.6464,4.392062,0.1070783,0.20872662,132.0233,11/02.0/2023,2000,g 13.0,4.0
# From MPC106349
259P/Garradd,e,15.8984,51.3709,257.5648,2.728880,0.2186388,0.33884005,138.1718,11/02.0/2023,2000,g 15.5,4.0
# From MPEC 2022-O01
260P/McNaught,e,15.0538,349.3458,18.4564,3.623362,0.1429014,0.60924246,216.1707,11/02.0/2023,2000,g 13.5,4.0
# From MPEC 2021-J28
261P/Larson,e,6.0718,291.0781,67.3260,3.490385,0.1511451,0.42319221,241.1865,11/02.0/2023,2000,g 14.0,4.0
# From MPC 82322
262P/McNaught-Russell,e,29.2797,217.8886,171.0523,6.870217,0.0547329,0.81641347,217.8269,11/02.0/2023,2000,g 13.5,4.0
# From MPEC 2023_O39
263P/Gibbs,e,11.5226,105.5029,35.0402,3.041588,0.1858033,0.59361003,51.1723,11/02.0/2023,2000,g 18.0,4.0
# From MPC114608
264P/Larsen,e,26.0470,219.6487,344.6304,3.914529,0.1272579,0.36800155,204.4402,11/02.0/2023,2000,g 13.0,4.0
# From MPC 79870
265P/LINEAR,e,14.3595,342.9542,33.4942,4.258203,0.1121668,0.64747842,111.6888,11/02.0/2023,2000,g 14.5,4.0
# From MPEC 2021-F20
266P/Christensen,e,3.4270,4.9764,97.6789,3.530168,0.1485973,0.34038979,191.8584,11/02.0/2023,2000,g 14.7,4.0
# From MPC114608
267P/LONEOS,e,6.1430,228.6032,114.2230,3.209483,0.1714160,0.61427264,330.0360,11/02.0/2023,2000,g 19.5,4.0
# From MPC 92277
268P/Bernardi,e,15.6276,124.9115,359.8814,4.636445,0.0987248,0.47354345,319.3556,11/02.0/2023,2000,g 14.0,4.0
# From MPEC 2023-J29
269P/Jedicke,e,7.0839,241.7672,225.6595,7.064382,0.0524920,0.43241920,174.1367,11/02.0/2023,2000,g 10.0,4.0
# From MPC 88332
270P/Gehrels,e,2.9250,223.0344,209.8069,6.654849,0.0574112,0.46971835,217.6762,11/02.0/2023,2000,g  8.0,4.0
# From MPC 92277
271P/van Houten-Lemmon,e,6.8720,9.3380,36.4592,7.033623,0.0528367,0.39612100,198.3599,11/02.0/2023,2000,g 11.0,4.0
# From MPEC 2023-D41
272P/NEAT,e,18.0744,109.4515,27.8846,4.461731,0.1045801,0.45502833,49.4639,11/02.0/2023,2000,g 16.0,2.0
# From MPC 82723
273P/Pons-Gambart,e,36.6525,320.4123,20.3401,32.03415,0.0054361,0.97411384,0.0000,12/20.4633/2012,2000,g 11.5,4.0
# From MPEC 2023-M14
274P/Tombaugh-Tenagra,e,15.8180,81.3206,38.4690,4.377663,0.1076070,0.43980615,61.6021,11/02.0/2023,2000,g 13.9,4.0
# From MPC 81862
275P/Hermann,e,21.2627,348.6995,173.9427,5.785904,0.0708186,0.71319927,282.6759,11/02.0/2023,2000,g 17.0,4.0
# From MPEC 2023-UR6
276P/Vorobjov,e,14.8126,211.3395,199.3947,5.331429,0.0800643,0.26878483,327.5050,11/02.0/2023,2000,g 11.5,4.0
# From MPEC 2021-F20
277P/LINEAR,e,16.7844,276.2800,152.3685,3.853456,0.1302952,0.50638785,135.0169,11/02.0/2023,2000,g 15.1,4.0
# From MPEC 2021-S45
278P/McNaught,e,6.6879,15.3155,237.4716,3.675720,0.1398590,0.43867963,160.2583,11/02.0/2023,2000,g 14.0,4.0
# From MPEC 2023-UR6
279P/LaSagra,e,5.0493,346.2020,5.8301,3.575925,0.1457543,0.39941513,28.6488,11/02.0/2023,2000,g 14.0,4.0
# From MPEC 2023-J95
280P/Larsen,e,11.7724,131.3781,104.7329,4.528690,0.1022693,0.41701929,9.1340,11/02.0/2023,2000,g 12.5,4.0
# From MPEC 2023-D41
281P/MOSS,e,4.7177,87.1729,26.7002,4.880730,0.0914065,0.17336640,24.9672,11/02.0/2023,2000,g 11.0,4.0
# From MPC133426
282P/,e,5.8118,217.6218,9.2595,4.237354,0.1129957,0.18779700,83.4878,11/02.0/2023,2000,g 13.5,2.0
# From MPEC 2022-K19
283P/Spacewatch,e,14.4575,161.1236,22.1881,4.134105,0.1172551,0.48436456,92.0787,11/02.0/2023,2000,g 16.0,2.0
# From MPEC 2023-D41
284P/McNaught,e,11.8591,144.2675,202.4645,3.677037,0.1397839,0.37507895,109.1069,11/02.0/2023,2000,g 13.0,4.0
# From MPEC 2023-B57
285P/LINEAR,e,25.0374,185.5030,178.3919,4.506997,0.1030085,0.61855779,30.2640,11/02.0/2023,2000,g 15.0,4.0
# From MPEC 2022-X67
286P/Christensen,e,17.0676,283.7219,24.8447,4.108642,0.1183468,0.42658019,63.7595,11/02.0/2023,2000,g 14.0,4.0
# From MPEC 2023-T65
287P/Christensen,e,16.3201,139.0401,189.1802,4.165191,0.1159449,0.27150517,13.7594,11/02.0/2023,2000,g 13.5,4.0
# From MPC133426
288P/,e,3.2384,83.1079,280.2627,3.048628,0.1851601,0.20032873,113.0079,11/02.0/2023,2000,g 16.0,2.0
# From MPEC 2023-HD1
289P/Blanpain,e,5.9002,68.8921,9.8486,3.044822,0.1855074,0.68631698,261.8013,11/02.0/2023,2000,g 19.7,4.0
# From MPC 95214
290P/Jager,e,20.0531,302.6818,181.8187,6.216349,0.0635918,0.62769300,227.0842,11/02.0/2023,2000,g 10.5,4.0
# From MPEC 2023-UR6
291P/NEAT,e,6.3097,237.6597,173.5076,4.534704,0.1020659,0.43430628,18.5717,11/02.0/2023,2000,g 13.0,4.0
# From MPEC 2022-K19
292P/Li,e,24.3084,90.9065,319.5867,6.099612,0.0654261,0.58994366,232.5743,11/02.0/2023,2000,g 12.5,4.0
# From MPEC 2022-L66
293P/Spacewatch,e,9.0610,78.3646,40.9522,3.639662,0.1419425,0.41883576,148.6994,11/02.0/2023,2000,g 14.5,4.0
# From MPEC 2020-SI8
294P/LINEAR,e,18.1579,311.8016,235.5005,3.191277,0.1728850,0.60173984,247.9300,11/02.0/2023,2000,g 15.5,4.0
# From MPEC 2022-K19
295P/LINEAR,e,21.0756,7.4196,72.9318,5.303403,0.0806997,0.61743565,279.8013,11/02.0/2023,2000,g 12.0,4.0
# From MPEC 2021-N06
296P/Garradd,e,25.2765,263.5277,349.9309,3.489735,0.1511873,0.47950534,172.4600,11/02.0/2023,2000,g 14.0,4.0
# From MPC102956
297P/Beshore,e,10.3822,96.0657,136.4506,3.486350,0.1514076,0.31927121,151.8120,11/02.0/2023,2000,g 15.0,4.0
# From MPC114609
298P/Christensen,e,7.8706,52.8131,100.5968,3.589593,0.1449227,0.38630743,167.0048,11/02.0/2023,2000,g 15.0,4.0
# From MPEC 2023-OA6
299P/Catalina-PANSTARRS,e,10.4673,271.5871,323.7135,4.389230,0.1071819,0.28091096,340.6532,11/02.0/2023,2000,g 11.5,4.0
# From MPEC 2023-J95
300P/Catalina,e,5.6748,95.6169,222.9469,2.698495,0.2223421,0.69172838,45.5547,11/02.0/2023,2000,g 16.0,4.0
# From MPC 89014
301P/LINEAR-NEAT,e,10.3351,351.0921,193.5369,5.744074,0.0715936,0.58568792,241.1110,11/02.0/2023,2000,g 13.0,4.0
# From MPEC 2023-N01
302P/Lemmon-PANSTARRS,e,6.0341,121.7194,208.5735,4.271251,0.1116533,0.23003446,304.9474,11/02.0/2023,2000,g 12.5,4.0
# From MPC 92278
303P/NEAT,e,7.0182,347.9879,356.9900,5.042226,0.0870504,0.51072668,286.8227,11/02.0/2023,2000,g 13.5,4.0
# From MPEC 2022-K19
304P/Ory,e,2.6065,58.9402,335.2513,3.150498,0.1762525,0.60102690,207.2066,11/02.0/2023,2000,g 16.5,4.0
# From MPC101100
305P/Skiff,e,11.6667,240.1468,147.3605,4.637504,0.0986910,0.69402847,322.3890,11/02.0/2023,2000,g 18.0,4.0
# From MPC 92278
